{
  "type": "FeatureCollection",
  "features": [
    {
      "type": "Feature",
      "properties": {
        "norad_id": 43208,
        "name": "BEIDOU-3 M3 (C21)",
        "group": "beidou",
        "lat": -42.690445339025146,
        "lon": -72.84821230682823,
        "alt_km": 21531.044165397823,
        "timestamp": "2025-12-06T07:31:40.502140+00:00",
        "meta_object_name": "BEIDOU-3 M3 (C21)",
        "meta_object_id": "2018-018B",
        "meta_epoch": "2025-12-03T06:41:57.693408",
        "meta_mean_motion": 1.86230862,
        "meta_eccentricity": 0.0006282,
        "meta_inclination": 56.4772,
        "meta_ra_of_asc_node": 69.6218,
        "meta_arg_of_pericenter": 317.5873,
        "meta_mean_anomaly": 42.3668,
        "meta_ephemeris_type": 0,
        "meta_classification_type": "U",
        "meta_norad_cat_id": 43208,
        "meta_element_set_no": 999,
        "meta_rev_at_epoch": 5309,
        "meta_bstar": 0,
        "meta_mean_motion_dot": -4.9e-07,
        "meta_mean_motion_ddot": 0,
        "tle_line1": "1 43208U 18018B   25337.27913997 -.00000049  00000+0  00000+0 0  9994",
        "tle_line2": "2 43208  56.4772  69.6218 0006282 317.5873  42.3668  1.86230862 53096"
      },
      "geometry": {
        "type": "Point",
        "coordinates": [
          -72.84821230682823,
          -42.690445339025146
        ]
      }
    },
    {
      "type": "Feature",
      "properties": {
        "norad_id": 43245,
        "name": "BEIDOU-3 M9 (C29)",
        "group": "beidou",
        "lat": 54.36965131067761,
        "lon": 35.9799303908902,
        "alt_km": 21526.74356413995,
        "timestamp": "2025-12-06T07:31:40.502151+00:00",
        "meta_object_name": "BEIDOU-3 M9 (C29)",
        "meta_object_id": "2018-029A",
        "meta_epoch": "2025-12-05T02:32:47.739840",
        "meta_mean_motion": 1.86227814,
        "meta_eccentricity": 0.0001693,
        "meta_inclination": 54.3728,
        "meta_ra_of_asc_node": 306.734,
        "meta_arg_of_pericenter": 274.7649,
        "meta_mean_anomaly": 85.198,
        "meta_ephemeris_type": 0,
        "meta_classification_type": "U",
        "meta_norad_cat_id": 43245,
        "meta_element_set_no": 999,
        "meta_rev_at_epoch": 5228,
        "meta_bstar": 0,
        "meta_mean_motion_dot": -6.9e-07,
        "meta_mean_motion_ddot": 0,
        "tle_line1": "1 43245U 18029A   25339.10610810 -.00000069  00000+0  00000+0 0  9991",
        "tle_line2": "2 43245  54.3728 306.7340 0001693 274.7649  85.1980  1.86227814 52287"
      },
      "geometry": {
        "type": "Point",
        "coordinates": [
          35.9799303908902,
          54.36965131067761
        ]
      }
    },
    {
      "type": "Feature",
      "properties": {
        "norad_id": 43246,
        "name": "BEIDOU-3 M10 (C30)",
        "group": "beidou",
        "lat": 36.43528661491406,
        "lon": 94.75045986340024,
        "alt_km": 21531.444951960184,
        "timestamp": "2025-12-06T07:31:40.502162+00:00",
        "meta_object_name": "BEIDOU-3 M10 (C30)",
        "meta_object_id": "2018-029B",
        "meta_epoch": "2025-12-02T08:33:31.656096",
        "meta_mean_motion": 1.86228863,
        "meta_eccentricity": 0.00039643,
        "meta_inclination": 54.3728,
        "meta_ra_of_asc_node": 306.8573,
        "meta_arg_of_pericenter": 359.3208,
        "meta_mean_anomaly": 0.6665,
        "meta_ephemeris_type": 0,
        "meta_classification_type": "U",
        "meta_norad_cat_id": 43246,
        "meta_element_set_no": 999,
        "meta_rev_at_epoch": 5221,
        "meta_bstar": 0,
        "meta_mean_motion_dot": -6.2e-07,
        "meta_mean_motion_ddot": 0,
        "tle_line1": "1 43246U 18029B   25336.35661639 -.00000062  00000+0  00000+0 0  9994",
        "tle_line2": "2 43246  54.3728 306.8573 0003964 359.3208   0.6665  1.86228863 52211"
      },
      "geometry": {
        "type": "Point",
        "coordinates": [
          94.75045986340024,
          36.43528661491406
        ]
      }
    },
    {
      "type": "Feature",
      "properties": {
        "norad_id": 43539,
        "name": "BEIDOU-2 IGSO-7 (C16)",
        "group": "beidou",
        "lat": 36.317101807877435,
        "lon": -46.11647650174049,
        "alt_km": 35860.03075448272,
        "timestamp": "2025-12-06T07:31:40.502173+00:00",
        "meta_object_name": "BEIDOU-2 IGSO-7 (C16)",
        "meta_object_id": "2018-057A",
        "meta_epoch": "2025-12-04T10:49:25.352832",
        "meta_mean_motion": 1.00259277,
        "meta_eccentricity": 0.0092474,
        "meta_inclination": 55.1728,
        "meta_ra_of_asc_node": 164.7444,
        "meta_arg_of_pericenter": 235.1674,
        "meta_mean_anomaly": 307.3303,
        "meta_ephemeris_type": 0,
        "meta_classification_type": "U",
        "meta_norad_cat_id": 43539,
        "meta_element_set_no": 999,
        "meta_rev_at_epoch": 2717,
        "meta_bstar": 0,
        "meta_mean_motion_dot": -3.5e-07,
        "meta_mean_motion_ddot": 0,
        "tle_line1": "1 43539U 18057A   25338.45098788 -.00000035  00000+0  00000+0 0  9992",
        "tle_line2": "2 43539  55.1728 164.7444 0092474 235.1674 307.3303  1.00259277 27177"
      },
      "geometry": {
        "type": "Point",
        "coordinates": [
          -46.11647650174049,
          36.317101807877435
        ]
      }
    },
    {
      "type": "Feature",
      "properties": {
        "norad_id": 43581,
        "name": "BEIDOU-3 M5 (C23)",
        "group": "beidou",
        "lat": -14.25369911344529,
        "lon": 178.26002589049477,
        "alt_km": 21524.519386699285,
        "timestamp": "2025-12-06T07:31:40.502185+00:00",
        "meta_object_name": "BEIDOU-3 M5 (C23)",
        "meta_object_id": "2018-062A",
        "meta_epoch": "2025-12-04T04:36:50.793120",
        "meta_mean_motion": 1.86228551,
        "meta_eccentricity": 0.0002115,
        "meta_inclination": 54.0891,
        "meta_ra_of_asc_node": 188.9344,
        "meta_arg_of_pericenter": 351.3867,
        "meta_mean_anomaly": 8.7024,
        "meta_ephemeris_type": 0,
        "meta_classification_type": "U",
        "meta_norad_cat_id": 43581,
        "meta_element_set_no": 999,
        "meta_rev_at_epoch": 5000,
        "meta_bstar": 0,
        "meta_mean_motion_dot": 1.07e-06,
        "meta_mean_motion_ddot": 0,
        "tle_line1": "1 43581U 18062A   25338.19225455  .00000107  00000+0  00000+0 0  9998",
        "tle_line2": "2 43581  54.0891 188.9344 0002115 351.3867   8.7024  1.86228551 50003"
      },
      "geometry": {
        "type": "Point",
        "coordinates": [
          178.26002589049477,
          -14.25369911344529
        ]
      }
    },
    {
      "type": "Feature",
      "properties": {
        "norad_id": 43582,
        "name": "BEIDOU-3 M6 (C24)",
        "group": "beidou",
        "lat": 51.177759537121055,
        "lon": -106.87311144176527,
        "alt_km": 21503.14132749489,
        "timestamp": "2025-12-06T07:31:40.502196+00:00",
        "meta_object_name": "BEIDOU-3 M6 (C24)",
        "meta_object_id": "2018-062B",
        "meta_epoch": "2025-12-04T14:12:56.874816",
        "meta_mean_motion": 1.862296,
        "meta_eccentricity": 0.00077069,
        "meta_inclination": 54.0887,
        "meta_ra_of_asc_node": 188.9098,
        "meta_arg_of_pericenter": 46.0149,
        "meta_mean_anomaly": 314.1395,
        "meta_ephemeris_type": 0,
        "meta_classification_type": "U",
        "meta_norad_cat_id": 43582,
        "meta_element_set_no": 999,
        "meta_rev_at_epoch": 5001,
        "meta_bstar": 0,
        "meta_mean_motion_dot": 1.02e-06,
        "meta_mean_motion_ddot": 0,
        "tle_line1": "1 43582U 18062B   25338.59232494  .00000102  00000+0  00000+0 0  9999",
        "tle_line2": "2 43582  54.0887 188.9098 0007706  46.0149 314.1395  1.86229600 50019"
      },
      "geometry": {
        "type": "Point",
        "coordinates": [
          -106.87311144176527,
          51.177759537121055
        ]
      }
    },
    {
      "type": "Feature",
      "properties": {
        "norad_id": 43602,
        "name": "BEIDOU-3 M12 (C26)",
        "group": "beidou",
        "lat": 46.75853506681387,
        "lon": -42.5972397713805,
        "alt_km": 21516.26396986008,
        "timestamp": "2025-12-06T07:31:40.502207+00:00",
        "meta_object_name": "BEIDOU-3 M12 (C26)",
        "meta_object_id": "2018-067A",
        "meta_epoch": "2025-12-05T01:36:30.437280",
        "meta_mean_motion": 1.86227634,
        "meta_eccentricity": 0.0009145,
        "meta_inclination": 54.1831,
        "meta_ra_of_asc_node": 187.6237,
        "meta_arg_of_pericenter": 40.6372,
        "meta_mean_anomaly": 319.5174,
        "meta_ephemeris_type": 0,
        "meta_classification_type": "U",
        "meta_norad_cat_id": 43602,
        "meta_element_set_no": 999,
        "meta_rev_at_epoch": 4950,
        "meta_bstar": 0,
        "meta_mean_motion_dot": 9.5e-07,
        "meta_mean_motion_ddot": 0,
        "tle_line1": "1 43602U 18067A   25339.06701895  .00000095  00000+0  00000+0 0  9997",
        "tle_line2": "2 43602  54.1831 187.6237 0009145  40.6372 319.5174  1.86227634 49501"
      },
      "geometry": {
        "type": "Point",
        "coordinates": [
          -42.5972397713805,
          46.75853506681387
        ]
      }
    }
  ]
}